[
    {
        "Altitude(m)": 607897.6363051311,
        "Argument of Periapsis(deg)": 0.0,
        "Eccentricity": 0.0,
        "Inclination(deg)": 60.0,
        "Latitude(deg)": -14.293056699987497,
        "Longitude(deg)": -133.38126288799995,
        "Mean Anomaly(deg)": -16.363600000000087,
        "RAAN(deg)": 335.0,
        "Satellite Name": "Test1 1495",
        "Satellite Number": 1495,
        "Semi-Major Axis(m)": 6980739.136638005,
        "Time(s)": 0
    },
    {
        "Altitude(m)": 607750.8369064257,
        "Argument of Periapsis(deg)": 0.00010418945913296404,
        "Eccentricity": 0.0,
        "Inclination(deg)": 60.0,
        "Latitude(deg)": -13.75889846333013,
        "Longitude(deg)": -133.09419311317995,
        "Mean Anomaly(deg)": -15.743493854538235,
        "RAAN(deg)": 334.99957995086027,
        "Satellite Name": "Test1 1495",
        "Satellite Number": 1495,
        "Semi-Major Axis(m)": 6980739.136638005,
        "Time(s)": 10
    }
]